STARLINK-31479          
1 59316U 24056W   26176.48859228 -.00000483  00000+0 -80587-5 0  9998
2 59316  42.9991 345.9903 0000412 318.1213  41.9607 15.27584140127597
STARLINK-31921          
1 59868U 24098L   26176.91878499 -.00001181  00000+0 -33389-4 0  9998
2 59868  43.0022 346.4231 0000896 276.2843  83.7906 15.27582617118857
STARLINK-36507          
1 67409U 26005F   26177.16505021  .00017008  00000+0  62617-3 0  9992
2 67409  43.0023 345.6114 0000946  13.3177 346.7700 15.27578607 25287
STARLINK-36468          
1 67415U 26005M   26177.17276999  .00022379  00000+0  81948-3 0  9994
2 67415  42.9972 345.6653 0002183  62.2875 297.8198 15.27611116 25286
