{
  "schema": "int-temerity-real-tle-snapshot/v1",
  "source": "celestrak",
  "group": "STARLINK",
  "format": "celestrak-gp-json",
  "source_url": "https://celestrak.org/NORAD/elements/gp.php?NAME=STARLINK&FORMAT=JSON",
  "downloaded_at": "2026-06-26T09:52:00.103Z",
  "generated_at": "2026-06-26T09:52:00.244Z",
  "fingerprint": "ba85ff7c",
  "shell_id": "starlink-real-43deg-490km",
  "catalog_count": 10658,
  "shell_count": 3264,
  "selected_count": 64,
  "mean_altitude_km": 490.15,
  "mean_inclination_deg": 43.002,
  "mean_mean_motion_rev_per_day": 15.27590899,
  "layout": {
    "planes": 8,
    "satellites_per_plane": 8,
    "selection_strategy": "largest-shell-raan-clusters-even-slot-sampling",
    "raan_cluster_threshold_deg": 1.5
  },
  "satellites": [
    {
      "satellite_id": "P08-S05",
      "norad_id": 59868,
      "satellite_name": "STARLINK-31921",
      "cospar_id": "2024-098L",
      "shell_id": "starlink-real-43deg-490km",
      "plane_id": 7,
      "slot_id": 4,
      "epoch": "2026-06-25T22:03:03.023136",
      "inclination": 43.0022,
      "raan": 346.4231,
      "eccentricity": 0.0000896,
      "argument_of_perigee": 276.28430000000003,
      "mean_anomaly": 83.79059999999998,
      "mean_motion": 15.27582617,
      "bstar": -0.000033389,
      "status": "active",
      "raw_omm": {
        "OBJECT_NAME": "STARLINK-31921",
        "OBJECT_ID": "2024-098L",
        "EPOCH": "2026-06-25T22:03:03.023136",
        "MEAN_MOTION": 15.27582617,
        "ECCENTRICITY": 0.0000896,
        "INCLINATION": 43.0022,
        "RA_OF_ASC_NODE": 346.4231,
        "ARG_OF_PERICENTER": 276.2843,
        "MEAN_ANOMALY": 83.7906,
        "EPHEMERIS_TYPE": 0,
        "CLASSIFICATION_TYPE": "U",
        "NORAD_CAT_ID": 59868,
        "ELEMENT_SET_NO": 999,
        "REV_AT_EPOCH": 11885,
        "BSTAR": -0.000033389,
        "MEAN_MOTION_DOT": -0.00001181,
        "MEAN_MOTION_DDOT": 0
      },
      "source": "celestrak",
      "source_url": "https://celestrak.org/NORAD/elements/gp.php?NAME=STARLINK&FORMAT=JSON",
      "catalog_fingerprint": "ba85ff7c"
    },
    {
      "satellite_id": "P08-S06",
      "norad_id": 59316,
      "satellite_name": "STARLINK-31479",
      "cospar_id": "2024-056W",
      "shell_id": "starlink-real-43deg-490km",
      "plane_id": 7,
      "slot_id": 5,
      "epoch": "2026-06-25T11:43:34.372992",
      "inclination": 42.9991,
      "raan": 345.99029999999993,
      "eccentricity": 0.0000412,
      "argument_of_perigee": 318.1213,
      "mean_anomaly": 41.960699999999974,
      "mean_motion": 15.2758414,
      "bstar": -0.0000080587,
      "status": "active",
      "raw_omm": {
        "OBJECT_NAME": "STARLINK-31479",
        "OBJECT_ID": "2024-056W",
        "EPOCH": "2026-06-25T11:43:34.372992",
        "MEAN_MOTION": 15.2758414,
        "ECCENTRICITY": 0.0000412,
        "INCLINATION": 42.9991,
        "RA_OF_ASC_NODE": 345.9903,
        "ARG_OF_PERICENTER": 318.1213,
        "MEAN_ANOMALY": 41.9607,
        "EPHEMERIS_TYPE": 0,
        "CLASSIFICATION_TYPE": "U",
        "NORAD_CAT_ID": 59316,
        "ELEMENT_SET_NO": 999,
        "REV_AT_EPOCH": 12759,
        "BSTAR": -0.0000080587,
        "MEAN_MOTION_DOT": -0.00000483,
        "MEAN_MOTION_DDOT": 0
      },
      "source": "celestrak",
      "source_url": "https://celestrak.org/NORAD/elements/gp.php?NAME=STARLINK&FORMAT=JSON",
      "catalog_fingerprint": "ba85ff7c"
    },
    {
      "satellite_id": "P08-S07",
      "norad_id": 67409,
      "satellite_name": "STARLINK-36507",
      "cospar_id": "2026-005F",
      "shell_id": "starlink-real-43deg-490km",
      "plane_id": 7,
      "slot_id": 6,
      "epoch": "2026-06-26T03:57:40.338144",
      "inclination": 43.0023,
      "raan": 345.6114,
      "eccentricity": 0.0000946,
      "argument_of_perigee": 13.317700000000002,
      "mean_anomaly": 346.77,
      "mean_motion": 15.27578607,
      "bstar": 0.00062617,
      "status": "active",
      "raw_omm": {
        "OBJECT_NAME": "STARLINK-36507",
        "OBJECT_ID": "2026-005F",
        "EPOCH": "2026-06-26T03:57:40.338144",
        "MEAN_MOTION": 15.27578607,
        "ECCENTRICITY": 0.0000946,
        "INCLINATION": 43.0023,
        "RA_OF_ASC_NODE": 345.6114,
        "ARG_OF_PERICENTER": 13.3177,
        "MEAN_ANOMALY": 346.77,
        "EPHEMERIS_TYPE": 0,
        "CLASSIFICATION_TYPE": "U",
        "NORAD_CAT_ID": 67409,
        "ELEMENT_SET_NO": 999,
        "REV_AT_EPOCH": 2528,
        "BSTAR": 0.00062617,
        "MEAN_MOTION_DOT": 0.00017008,
        "MEAN_MOTION_DDOT": 0
      },
      "source": "celestrak",
      "source_url": "https://celestrak.org/NORAD/elements/gp.php?NAME=STARLINK&FORMAT=JSON",
      "catalog_fingerprint": "ba85ff7c"
    },
    {
      "satellite_id": "P08-S08",
      "norad_id": 67415,
      "satellite_name": "STARLINK-36468",
      "cospar_id": "2026-005M",
      "shell_id": "starlink-real-43deg-490km",
      "plane_id": 7,
      "slot_id": 7,
      "epoch": "2026-06-26T04:08:47.327136",
      "inclination": 42.9972,
      "raan": 345.6653,
      "eccentricity": 0.0002183,
      "argument_of_perigee": 62.28750000000002,
      "mean_anomaly": 297.8198,
      "mean_motion": 15.27611116,
      "bstar": 0.00081948,
      "status": "active",
      "raw_omm": {
        "OBJECT_NAME": "STARLINK-36468",
        "OBJECT_ID": "2026-005M",
        "EPOCH": "2026-06-26T04:08:47.327136",
        "MEAN_MOTION": 15.27611116,
        "ECCENTRICITY": 0.0002183,
        "INCLINATION": 42.9972,
        "RA_OF_ASC_NODE": 345.6653,
        "ARG_OF_PERICENTER": 62.2875,
        "MEAN_ANOMALY": 297.8198,
        "EPHEMERIS_TYPE": 0,
        "CLASSIFICATION_TYPE": "U",
        "NORAD_CAT_ID": 67415,
        "ELEMENT_SET_NO": 999,
        "REV_AT_EPOCH": 2528,
        "BSTAR": 0.00081948,
        "MEAN_MOTION_DOT": 0.00022379,
        "MEAN_MOTION_DDOT": 0
      },
      "source": "celestrak",
      "source_url": "https://celestrak.org/NORAD/elements/gp.php?NAME=STARLINK&FORMAT=JSON",
      "catalog_fingerprint": "ba85ff7c"
    }
  ]
}